NORAD_CAT_ID,OBJECT_NAME,OBJECT_TYPE,EPOCH,MEAN_MOTION,ECCENTRICITY,INCLINATION,RA_OF_ASC_NODE,ARG_OF_PERICENTER,MEAN_ANOMALY,BSTAR,MEAN_MOTION_DOT,MEAN_MOTION_DDOT,TLE_LINE0,TLE_LINE1,TLE_LINE2,SEMIMAJOR_AXIS,PERIOD,APOGEE,PERIGEE,DECAYED
55430.0,STARLINK-5642,PAYLOAD,2023-12-23 21:58:12,14.98328392,0.0002978,69.9998,338.5437,263.2566,96.8254,5.9331e-05,6.15e-06,0.0,0 STARLINK-5642,1 55430U 23014AR  23357.91542716  .00000615  00000-0  59331-4 0  9999,2 55430  69.9998 338.5437 0002978 263.2566  96.8254 14.98328392 50220,6950.198,96.107,574.133,569.993,0.0
55430.0,STARLINK-5642,PAYLOAD,2023-12-24 09:11:09,14.98329717,0.0002767,70.0004,337.3647,257.254,102.8309,0.00013145,1.476e-05,0.0,0 STARLINK-5642,1 55430U 23014AR  23358.38274445  .00001476  00000-0  13145-3 0  9990,2 55430  70.0004 337.3647 0002767 257.2540 102.8309 14.98329717 49355,6950.194,96.107,573.982,570.136,0.0
55430.0,STARLINK-5642,PAYLOAD,2023-12-25 09:13:10,14.98332042,0.0002568,70.0003,334.8392,253.9621,106.1255,5.1547e-05,5.22e-06,0.0,0 STARLINK-5642,1 55430U 23014AR  23359.38414388  .00000522  00000-0  51547-4 0  9993,2 55430  70.0003 334.8392 0002568 253.9621 106.1255 14.98332042 49504,6950.187,96.107,573.836,570.267,0.0
55430.0,STARLINK-5642,PAYLOAD,2023-12-26 02:50:39,14.9832654,0.0002888,69.9998,332.9884,269.4974,90.5854,-8.0966e-05,-1.059e-05,0.0,0 STARLINK-5642,1 55430U 23014AR  23360.11851156 -.00001059  00000-0 -80966-4 0  9999,2 55430  69.9998 332.9884 0002888 269.4974  90.5854 14.98326540 49616,6950.204,96.107,574.076,570.061,0.0
55430.0,STARLINK-5642,PAYLOAD,2023-12-26 07:39:03,14.98327818,0.0002711,69.9999,332.4835,262.1611,97.924,-4.1853e-05,-5.92e-06,0.0,0 STARLINK-5642,1 55430U 23014AR  23360.31878978 -.00000592  00000-0 -41853-4 0  9995,2 55430  69.9999 332.4835 0002711 262.1611  97.9240 14.98327818 50588,6950.2,96.107,573.949,570.18,0.0
55430.0,STARLINK-5642,PAYLOAD,2023-12-26 22:04:15,14.98331337,0.0002814,69.9995,330.9679,268.3988,91.6849,-6.7574e-06,-1.74e-06,0.0,0 STARLINK-5642,1 55430U 23014AR  23360.91962600 -.00000174  00000-0 -67574-5 0  9992,2 55430  69.9995 330.9679 0002814 268.3988  91.6849 14.98331337 50679,6950.189,96.107,574.01,570.098,0.0
55430.0,STARLINK-5642,PAYLOAD,2023-12-27 02:52:39,14.98332359,0.0002771,69.9996,330.463,266.807,93.2772,6.837e-06,-1.1e-07,0.0,0 STARLINK-5642,1 55430U 23014AR  23361.11990459 -.00000011  00000-0  68370-5 0  9992,2 55430  69.9996 330.4630 0002771 266.8070  93.2772 14.98332359 49765,6950.186,96.107,573.976,570.125,0.0
55430.0,STARLINK-5642,PAYLOAD,2023-12-27 07:41:03,14.98336608,0.0002771,69.9997,329.9582,267.0616,93.0226,4.6617e-05,4.63e-06,0.0,0 STARLINK-5642,1 55430U 23014AR  23361.32018046  .00000463  00000-0  46617-4 0  9997,2 55430  69.9997 329.9582 0002771 267.0616  93.0226 14.98336608 50736,6950.172,96.107,573.963,570.112,0.0
55430.0,STARLINK-5642,PAYLOAD,2023-12-28 02:54:41,14.98323457,0.0002977,69.9996,327.9382,270.3691,89.7126,-1.2295e-05,-2.4e-06,0.0,0 STARLINK-5642,1 55430U 23014AR  23362.12131068 -.00000240  00000-0 -12295-4 0  9996,2 55430  69.9996 327.9382 0002977 270.3691  89.7126 14.98323457 49916,6950.213,96.107,574.147,570.009,0.0
55430.0,STARLINK-5642,PAYLOAD,2023-12-28 07:43:05,14.98326218,0.0003006,69.9996,327.4334,271.6849,88.3966,7.1346e-05,7.58e-06,0.0,0 STARLINK-5642,1 55430U 23014AR  23362.32158718  .00000758  00000-0  71346-4 0  9993,2 55430  69.9996 327.4334 0003006 271.6849  88.3966 14.98326218 50884,6950.205,96.107,574.159,569.98,0.0
55430.0,STARLINK-5642,PAYLOAD,2023-12-29 02:56:41,14.98329997,0.0002821,69.9999,325.4133,268.5511,91.5325,-1.5115e-05,-2.73e-06,0.0,0 STARLINK-5642,1 55430U 23014AR  23363.12270667 -.00000273  00000-0 -15115-4 0  9996,2 55430  69.9999 325.4133 0002821 268.5511  91.5325 14.98329997 50069,6950.193,96.107,574.019,570.097,0.0
55430.0,STARLINK-5642,PAYLOAD,2023-12-29 07:45:05,14.98331413,0.0002655,70.0003,324.9081,268.9975,91.088,1.1973e-05,5e-07,0.0,0 STARLINK-5642,1 55430U 23014AR  23363.32298539  .00000050  00000-0  11973-4 0  9995,2 55430  70.0003 324.9081 0002655 268.9975  91.0880 14.98331413 51032,6950.189,96.107,573.899,570.208,0.0
55430.0,STARLINK-5642,PAYLOAD,2023-12-29 22:10:18,14.9832689,0.0002721,70.0006,323.3927,267.5317,92.553,0.00011211,1.245e-05,0.0,0 STARLINK-5642,1 55430U 23014AR  23363.92382399  .00001245  00000-0  11211-3 0  9990,2 55430  70.0006 323.3927 0002721 267.5317  92.5530 14.98326890 51127,6950.203,96.107,573.959,570.176,0.0
55430.0,STARLINK-5642,PAYLOAD,2023-12-30 07:47:06,14.98333056,0.0002697,70.0,322.3825,261.6065,98.4788,0.00010826,1.199e-05,0.0,0 STARLINK-5642,1 55430U 23014AR  23364.32437992  .00001199  00000-0  10826-3 0  9994,2 55430  70.0000 322.3825 0002697 261.6065  98.4788 14.98333056 50248,6950.183,96.107,573.923,570.174,0.0
55430.0,STARLINK-5642,PAYLOAD,2023-12-30 22:09:51,15.00292259,0.0011822,70.0025,320.8677,240.8831,119.1146,0.021618,0.00282792,0.0,0 STARLINK-5642,1 55430U 23014AR  23364.92350714  .00282792  00000-0  21618-1 0  9995,2 55430  70.0025 320.8677 0011822 240.8831 119.1146 15.00292259 51279,6944.131,95.981,574.206,557.787,0.0
55430.0,STARLINK-5642,PAYLOAD,2023-12-31 08:00:01,14.98322283,0.0003034,70.0018,319.8378,274.5925,126.2751,0.0010292,0.00012206,0.0,0 STARLINK-5642,1 55430U 23014AR  23365.33334491  .00012206  00000-0  10292-2 0  9993,2 55430  70.0018 319.8378 0003034 274.5925 126.2751 14.98322283 50391,6950.217,96.107,574.19,569.973,0.0
55430.0,STARLINK-5642,PAYLOAD,2023-12-31 22:14:20,14.98331908,0.0002824,69.9996,318.3426,266.2716,93.812,-3.3311e-05,-4.9e-06,0.0,0 STARLINK-5642,1 55430U 23014AR  23365.92662358 -.00000490  00000-0 -33311-4 0  9997,2 55430  69.9996 318.3426 0002824 266.2716  93.8120 14.98331908 51421,6950.187,96.107,574.015,570.089,0.0
55430.0,STARLINK-5642,PAYLOAD,2024-01-01 03:02:44,14.98330806,0.0002773,69.9998,317.8377,264.1654,95.9189,-2.6375e-05,-4.08e-06,0.0,0 STARLINK-5642,1 55430U 23014AR  24001.12690377 -.00000408  00000-0 -26375-4 0  9990,2 55430  69.9998 317.8377 0002773 264.1654  95.9189 14.98330806 50516,6950.19,96.107,573.983,570.128,0.0
55430.0,STARLINK-5642,PAYLOAD,2024-01-01 06:15:00,14.98333818,0.000282,69.9998,317.5013,265.5317,94.552,-1.5883e-05,-2.83e-06,0.0,0 STARLINK-5642,1 55430U 23014AR  24001.26042136 -.00000283  00000-0 -15883-4 0  9992,2 55430  69.9998 317.5013 0002820 265.5317  94.5520 14.98333818 51470,6950.181,96.107,574.006,570.086,0.0
55430.0,STARLINK-5642,PAYLOAD,2024-01-01 22:16:21,14.98328967,0.0002762,70.0001,315.8188,264.3691,95.7154,2.1254e-05,1.61e-06,0.0,0 STARLINK-5642,1 55430U 23014AR  24001.92802287  .00000161  00000-0  21254-4 0  9998,2 55430  70.0001 315.8188 0002762 264.3691  95.7154 14.98328967 51575,6950.196,96.107,573.981,570.141,0.0
55430.0,STARLINK-5642,PAYLOAD,2024-01-02 03:04:45,14.9832946,0.0002713,70.0002,315.314,262.9184,97.1667,2.2397e-05,1.74e-06,0.0,0 STARLINK-5642,1 55430U 23014AR  24002.12830255  .00000174  00000-0  22397-4 0  9990,2 55430  70.0002 315.3140 0002713 262.9184  97.1667 14.98329460 50669,6950.195,96.107,573.945,570.174,0.0
55430.0,STARLINK-5642,PAYLOAD,2024-01-02 06:17:01,14.98331759,0.0002804,70.0,314.9764,268.926,91.1578,5.5218e-05,5.66e-06,0.0,0 STARLINK-5642,1 55430U 23014AR  24002.26182043  .00000566  00000-0  55218-4 0  9993,2 55430  70.0000 314.9764 0002804 268.9260  91.1578 14.98331759 51622,6950.187,96.107,574.001,570.104,0.0
55430.0,STARLINK-5642,PAYLOAD,2024-01-02 22:18:22,14.98329385,0.0002774,70.0,313.2929,265.3859,94.6983,2.2808e-05,1.79e-06,0.0,0 STARLINK-5642,1 55430U 23014AR  24002.92942171  .00000179  00000-0  22808-4 0  9991,2 55430  70.0000 313.2929 0002774 265.3859  94.6983 14.98329385 51729,6950.195,96.107,573.988,570.132,0.0
55430.0,STARLINK-5642,PAYLOAD,2024-01-03 06:00:00,14.9833185,0.0003109,70.0014,312.484,274.6778,14.1829,-0.00069543,-8.381e-05,0.0,0 STARLINK-5642,1 55430U 23014AR  24003.25001157 -.00008381  00000-0 -69543-3 0  9999,2 55430  70.0014 312.4840 0003109 274.6778  14.1829 14.98331850 50830,6950.187,96.107,574.213,569.891,0.0
55430.0,STARLINK-5642,PAYLOAD,2024-01-03 14:00:01,14.98314666,0.0003087,70.0013,311.6434,272.1602,14.1876,0.00032934,3.837e-05,0.0,0 STARLINK-5642,1 55430U 23014AR  24003.58334491  .00003837  00000-0  32934-3 0  9998,2 55430  70.0013 311.6434 0003087 272.1602  14.1876 14.98314666  5785,6950.24,96.108,574.251,569.96,0.0
55430.0,STARLINK-5642,PAYLOAD,2024-01-03 22:00:00,14.98349869,0.0003114,70.0015,310.8031,269.1975,14.6079,-0.0014283,-0.00017103,0.0,0 STARLINK-5642,1 55430U 23014AR  24003.91667824 -.00017103  00000-0 -14283-2 0  9993,2 55430  70.0015 310.8031 0003114 269.1975  14.6079 14.98349869  5784,6950.131,96.106,574.161,569.832,0.0
55430.0,STARLINK-5642,PAYLOAD,2024-01-04 06:21:03,14.98338944,0.0002751,70.0002,309.9268,268.9429,91.1415,-0.00014098,-1.775e-05,0.0,0 STARLINK-5642,1 55430U 23014AR  24004.26461885 -.00001775  00000-0 -14098-3 0  9994,2 55430  70.0002 309.9268 0002751 268.9429  91.1415 14.98338944 50986,6950.165,96.106,573.942,570.118,0.0
55430.0,STARLINK-5642,PAYLOAD,2024-01-04 22:22:23,14.98331781,0.0002811,70.0001,308.2435,268.6609,91.4228,-1.7009e-06,-1.13e-06,0.0,0 STARLINK-5642,1 55430U 23014AR  24004.93221933 -.00000113  00000-0 -17009-5 0  9998,2 55430  70.0001 308.2435 0002811 268.6609  91.4228 14.98331781 52021,6950.187,96.107,574.006,570.099,0.0
55430.0,STARLINK-5642,PAYLOAD,2024-01-05 06:23:03,14.98335597,0.0002761,70.0001,307.4018,268.5217,91.5626,4.6275e-05,4.59e-06,0.0,0 STARLINK-5642,1 55430U 23014AR  24005.26601493  .00000459  00000-0  46275-4 0  9995,2 55430  70.0001 307.4018 0002761 268.5217  91.5626 14.98335597 51130,6950.176,96.107,573.96,570.122,0.0
55430.0,STARLINK-5642,PAYLOAD,2024-01-05 19:12:08,14.98328379,0.0002604,70.0003,306.0553,268.2294,91.8566,1.6623e-05,1.05e-06,0.0,0 STARLINK-5642,1 55430U 23014AR  24005.80009967  .00000105  00000-0  16623-4 0  9995,2 55430  70.0003 306.0553 0002604 268.2294  91.8566 14.98328379 51214,6950.198,96.107,573.873,570.253,0.0
